IRIDIUM 36 [-]          
1 24967U 97056C   23237.68062970  .00000428  00000+0  13969-3 0  9994
2 24967  86.3920  90.7279 0002114  81.2412 278.9024 14.36371144357223
IRIDIUM 39 [-]          
1 25042U 97069D   23237.82111543  .00000650  00000+0  17163-3 0  9997
2 25042  86.3947 134.3597 0018578 359.8955   0.2240 14.47322173353246
IRIDIUM 38 [-]          
1 25043U 97069E   23237.85255264  .00000493  00000+0  16026-3 0  9992
2 25043  86.4017 151.1467 0004115 103.7734 256.3921 14.36853028350953
IRIDIUM 42 [-]          
1 25077U 97077A   23237.83464730  .00000470  00000+0  15786-3 0  9993
2 25077  86.4029 156.5116 0002803  92.8824 267.2694 14.35171728346304
IRIDIUM 44 [-]          
1 25078U 97077B   23237.81457007  .00000486  00000+0  15139-3 0  9990
2 25078  86.3997 140.2435 0003839  65.4770 294.6829 14.38952765348552
IRIDIUM 45 [-]          
1 25104U 97082A   23237.88160780  .00011415  00000+0  76148-3 0  9993
2 25104  86.3810   0.3529 0182170 229.7780 128.7391 14.94264883352485
IRIDIUM 24 [-]          
1 25105U 97082B   23237.84925023  .00000628  00000+0  19032-3 0  9992
2 25105  86.3962   0.3100 0013731  99.6906 260.5845 14.40696301347959
IRIDIUM 51 [-]          
1 25262U 98018A   23237.87955072  .00016826  00000+0  96509-3 0  9997
2 25262  86.3966  11.0147 0169852 186.1816 173.7327 15.00950607346829
